#cP2018  7 19  0  0  0.00000000     289 d+D   IGS14 FIT AIUB
## 2010 345600.00000000   300.00000000 58318 0.0000000000000
+   84   G01G02G03G04G05G06G07G08G09G10G11G12G13G14G15G16G17
+        G18G19G20G21G22G23G24G25G26G27G28G29G30G31G32R01R02
+        R03R04R05R07R08R09R10R11R13R14R15R16R17R18R19R20R21
+        R22R23R24R26E01E02E03E04E05E07E08E09E11E12E14E18E19
+        E21E24E25E26E27E30E31C06C07C09C10C11C12C13C14J01  0
++         5  5  5  5  5  5  5  5  5  5  5  5  5  5  5  5  5
++         5  5  5  5  5  5  5  5  5  5  5  5  5  5  5  5  5
++         5  5  8  5  5  5  5  5  5  5  5  5  5  5  5  5  5
++         5  5  5  5  5  5  5  5  5  5  5  5  5  5  5  5 10
++         5  5  5  5  5  5  5  5  6  5  5  5  5  5  5  5  0
%c M  cc GPS ccc cccc cccc cccc cccc ccccc ccccc ccccc ccccc
%c cc cc ccc ccc cccc cccc cccc cccc ccccc ccccc ccccc ccccc
%f  1.2500000  1.025000000  0.00000000000  0.000000000000000
%f  0.0000000  0.000000000  0.00000000000  0.000000000000000
%i    0    0    0    0      0      0      0      0         0
%i    0    0    0    0      0      0      0      0         0
/* CODE MGEX orbits and clocks                              
/* of DOY 18200                                             
/*                                                          
/* PCV:IGS14      OL/AL:FES2004  NONE     YN ORB:CoN CLK:CoN
*  2018  7 19  4 25  0.00000000
PG01 -13807.289616   6810.855956  21446.108840    -67.218828
PG02  14288.877132  16244.880915 -14999.354282     53.811369
PG03 -22587.451876  12509.009338   6055.185435    107.922917
PG04  -1651.653798 -16410.222513 -21006.761626     79.832072
PG05  16782.046748   4876.922454 -20165.164420     -4.403193
PG06   6253.326040  25563.394632  -3455.262254    385.718376
PG07  -6790.517011  21440.661617 -13525.294284    156.541786
PG08 -25326.835646  -4535.264161   6947.301521   -108.650511
PG09 -11927.534233  11352.297851 -20868.945408    513.426235
PG10   4010.787914 -19180.392950  17897.562473    188.670906
PG11 -16823.275808   2548.945596  19803.309078   -729.384170
PG12  23061.331222  -7814.890162  10188.754493    320.031056
PG13  23377.101577  12615.577175     43.422254    -92.244778
PG14 -15171.756992 -17681.665124  13217.305475    -97.636573
PG15  25192.348221    701.772017   8762.748273   -350.464526
PG16 -15246.029908  -6520.239696 -21005.283931     17.204410
PG17   6163.935570  17223.066432  19688.515549    -76.731393
PG18 -15701.640183  -3160.609793  20746.388711     35.337989
PG19  14673.103696  17455.532512  13188.148012   -419.216781
PG20  11621.515963 -21725.373052   9684.436634    512.643464
PG21   2437.704942 -24213.657889  -9876.377567   -365.478269
PG22 -22155.580741   6284.781659  13455.285111   -462.219058
PG23 -21666.769989   3423.258759 -14970.184342   -214.265387
PG24  15352.640750  -2679.483964  21389.672178    -52.753817
PG25  19317.560356 -17822.649463  -2995.941413   -618.280575
PG26  -6522.379629 -14263.517534 -21430.820682    -79.307720
PG27 -23225.260531 -12385.034592  -4572.650900    360.100074
PG28  -7997.949261  19055.393040  17332.454880    732.227824
PG29  14031.922323  -8718.269130 -20822.310106    412.212770
PG30   -554.332738  26117.361303  -4247.723169     48.806541
PG31  -6796.410465 -24827.540204  -5535.889697    106.757030
PG32  -6944.079425 -17145.939745  19134.479211   -472.083295
PR01 -22657.071675   -541.216339  11696.732416     29.275928
PR02 -22595.275522   8755.873775  -8000.045265    320.376550
PR03  -8318.867311  12012.565578 -20874.662621    138.065777
PR04  11277.493765   7984.672069 -21416.295083    269.059527
PR05  23659.737306   -804.852235  -9517.265325    -42.317480
PR07   7756.334998 -12013.551225  21153.601503    -42.747695
PR08 -10606.685928  -8298.411389  21720.385228     22.213156
PR09  12797.707737 -17063.235960  14060.440731     18.815945
PR10   7071.076487 -24456.997408  -2247.661906     28.161440
PR11  -3210.089834 -17803.809361 -17992.518590    -35.030443
PR13 -12360.735421  17131.076227 -14302.568117    -12.659530
PR14  -6976.254543  24436.951479   2082.071374     29.193702
PR15    557.183851  20534.096910  15193.492122    -13.371169
PR16  10959.011143   1616.815729  22952.569605     97.277992
PR17   2501.135329  16266.870843  19503.970743    149.034285
PR18  14552.357026  20115.541495   5725.970138    203.475550
PR19  18415.703058  13337.838931 -11566.964861    -56.682074
PR20  11232.484680  -2683.291065 -22737.396810   -345.639566
PR21  -2829.733483 -16382.876486 -19341.868853      6.481698
PR22 -15615.691226 -19936.374979  -3579.532039    -56.062910
PR23 -18077.616566 -10064.918339  14906.787085    166.610491
PR24 -10552.599273   3772.479513  22885.055843   -169.059535
PR26  11919.805544  -1976.765275 -22461.229470     34.840663
PE01   5449.646912  19621.241283  21476.873829   -393.778812
PE02  -5465.118974 -19610.200147 -21489.493085     20.069971
PE03 -15460.835319 -14315.188022  20794.644801    -56.004380
PE04  28759.707474   3427.709108  -6095.165924    -78.186092
PE05   6937.776692 -16840.609654  23343.330218    226.365798
PE07 -25222.888932   9496.642910 -12214.217364     -4.573194
PE08 -28778.969574  -3142.402098   6152.258358   6541.262540
PE09  25161.075393  -9662.902134  12268.111058   6730.966020
PE11  13619.477774  -9328.383070 -24578.431840   2607.522740
PE12  21071.968140  11411.589489 -17365.126181   4633.211970
PE14 -19469.523710   4134.560318  14614.226849   6549.118350
PE18  15659.571947 -14253.703869 -23882.824077   6048.678210
PE19  13611.797241  14789.574080 -21716.764622    -13.994449
PE21 -10067.366869  27212.097526   5817.552896   -171.925264
PE24  19216.718767 -18916.335665  12193.872453   6593.459040
PE25  10087.370878 -27225.442810  -5799.634952   2097.280110
PE26   1303.733106  23995.753892  17281.786792   5693.588950
PE27 -19254.626058  18384.192544 -12926.140082    669.604996
PE30 -17504.041187   -497.916503 -23871.708800   5666.817680
PE31  17167.201990   1195.468001  24092.527724   1083.654790
PC06 -17676.257820  21100.638554 -31746.563271    107.834887
PC07 -21637.058834  35823.391910   2263.238830     61.284585
PC09  -2081.032081  24395.202477 -34129.160965     62.511449
PC10  -9701.508020  37552.616981  16167.047680   -397.496699
PC11  16567.925358  -5407.105118 -21762.950641   -597.603480
PC12  24136.654594  10981.312651  -8792.708092    521.529478
PC13   3563.829072  37661.603274  18883.663783   -184.773815
PC14  24926.153146 -12317.465670   2124.212036    259.146594
PJ01 -34301.816593  23270.804736  -2903.701321   -174.802364
EOF
